CCSDS_OMM_VERS = 2.0
CREATION_DATE  = 
ORIGINATOR     = 

OBJECT_NAME    = SL-3 R/B
OBJECT_ID      = 1982-079B
CENTER_NAME    = EARTH
REF_FRAME      = TEME
TIME_SYSTEM    = UTC
MEAN_ELEMENT_THEORY = SGP/SGP4

EPOCH          = 2025-12-31T20:33:26.483328
MEAN_MOTION    = 15.23846553
ECCENTRICITY   = .00264631
INCLINATION    = 81.1476
RA_OF_ASC_NODE = 273.1245
ARG_OF_PERICENTER = 37.6416
MEAN_ANOMALY   = 322.6662

EPHEMERIS_TYPE = 0
CLASSIFICATION_TYPE = U
NORAD_CAT_ID   = 13403
ELEMENT_SET_NO = 999
REV_AT_EPOCH   = 36736
BSTAR          = .3749215E-3
MEAN_MOTION_DOT = .9155E-4
MEAN_MOTION_DDOT = 0

CCSDS_OMM_VERS = 2.0
CREATION_DATE  = 
ORIGINATOR     = 

OBJECT_NAME    = SL-14 R/B
OBJECT_ID      = 1982-092B
CENTER_NAME    = EARTH
REF_FRAME      = TEME
TIME_SYSTEM    = UTC
MEAN_ELEMENT_THEORY = SGP/SGP4

EPOCH          = 2025-12-31T22:37:19.829568
MEAN_MOTION    = 14.86577009
ECCENTRICITY   = .00207383
INCLINATION    = 82.5670
RA_OF_ASC_NODE = 204.7523
ARG_OF_PERICENTER = 162.0326
MEAN_ANOMALY   = 318.6710

EPHEMERIS_TYPE = 0
CLASSIFICATION_TYPE = U
NORAD_CAT_ID   = 13553
ELEMENT_SET_NO = 999
REV_AT_EPOCH   = 31886
BSTAR          = .91482304E-4
MEAN_MOTION_DOT = .838E-5
MEAN_MOTION_DDOT = 0

CCSDS_OMM_VERS = 2.0
CREATION_DATE  = 
ORIGINATOR     = 

OBJECT_NAME    = SL-3 R/B
OBJECT_ID      = 1983-010B
CENTER_NAME    = EARTH
REF_FRAME      = TEME
TIME_SYSTEM    = UTC
MEAN_ELEMENT_THEORY = SGP/SGP4

EPOCH          = 2025-12-31T16:46:51.172896
MEAN_MOTION    = 15.44041406
ECCENTRICITY   = .00163074
INCLINATION    = 81.1052
RA_OF_ASC_NODE = 85.4676
ARG_OF_PERICENTER = 283.2564
MEAN_ANOMALY   = 76.6860

EPHEMERIS_TYPE = 0
CLASSIFICATION_TYPE = U
NORAD_CAT_ID   = 13819
ELEMENT_SET_NO = 999
REV_AT_EPOCH   = 34744
BSTAR          = .45445835E-3
MEAN_MOTION_DOT = .20895E-3
MEAN_MOTION_DDOT = 0

CCSDS_OMM_VERS = 2.0
CREATION_DATE  = 
ORIGINATOR     = 

OBJECT_NAME    = SL-3 R/B
OBJECT_ID      = 1983-075B
CENTER_NAME    = EARTH
REF_FRAME      = TEME
TIME_SYSTEM    = UTC
MEAN_ELEMENT_THEORY = SGP/SGP4

EPOCH          = 2025-12-31T22:28:02.952192
MEAN_MOTION    = 15.36579504
ECCENTRICITY   = .00244263
INCLINATION    = 97.6104
RA_OF_ASC_NODE = 3.0701
ARG_OF_PERICENTER = 110.1604
MEAN_ANOMALY   = 250.2270

EPHEMERIS_TYPE = 0
CLASSIFICATION_TYPE = U
NORAD_CAT_ID   = 14208
ELEMENT_SET_NO = 999
REV_AT_EPOCH   = 31974
BSTAR          = .46045525E-3
MEAN_MOTION_DOT = .16535E-3
MEAN_MOTION_DDOT = 0

CCSDS_OMM_VERS = 2.0
CREATION_DATE  = 
ORIGINATOR     = 

OBJECT_NAME    = COSMOS 1536
OBJECT_ID      = 1984-013A
CENTER_NAME    = EARTH
REF_FRAME      = TEME
TIME_SYSTEM    = UTC
MEAN_ELEMENT_THEORY = SGP/SGP4

EPOCH          = 2025-12-31T20:44:55.605408
MEAN_MOTION    = 15.22782456
ECCENTRICITY   = .00149696
INCLINATION    = 82.5444
RA_OF_ASC_NODE = 175.1942
ARG_OF_PERICENTER = 157.0865
MEAN_ANOMALY   = 203.1042

EPHEMERIS_TYPE = 0
CLASSIFICATION_TYPE = U
NORAD_CAT_ID   = 14699
ELEMENT_SET_NO = 999
REV_AT_EPOCH   = 26229
BSTAR          = .46165504E-3
MEAN_MOTION_DOT = .10852E-3
MEAN_MOTION_DDOT = 0

CCSDS_OMM_VERS = 2.0
CREATION_DATE  = 
ORIGINATOR     = 

OBJECT_NAME    = SL-14 R/B
OBJECT_ID      = 1984-027B
CENTER_NAME    = EARTH
REF_FRAME      = TEME
TIME_SYSTEM    = UTC
MEAN_ELEMENT_THEORY = SGP/SGP4

EPOCH          = 2025-12-31T21:10:56.811072
MEAN_MOTION    = 14.85898334
ECCENTRICITY   = .00174899
INCLINATION    = 82.5428
RA_OF_ASC_NODE = 308.6049
ARG_OF_PERICENTER = 193.2352
MEAN_ANOMALY   = 166.8408

EPHEMERIS_TYPE = 0
CLASSIFICATION_TYPE = U
NORAD_CAT_ID   = 14820
ELEMENT_SET_NO = 999
REV_AT_EPOCH   = 23756
BSTAR          = .97975477E-4
MEAN_MOTION_DOT = .88E-5
MEAN_MOTION_DDOT = 0

CCSDS_OMM_VERS = 2.0
CREATION_DATE  = 
ORIGINATOR     = 

OBJECT_NAME    = SL-8 R/B
OBJECT_ID      = 1985-006B
CENTER_NAME    = EARTH
REF_FRAME      = TEME
TIME_SYSTEM    = UTC
MEAN_ELEMENT_THEORY = SGP/SGP4

EPOCH          = 2025-12-31T13:10:42.330720
MEAN_MOTION    = 14.37734979
ECCENTRICITY   = .00194705
INCLINATION    = 74.0458
RA_OF_ASC_NODE = 26.5272
ARG_OF_PERICENTER = 315.1480
MEAN_ANOMALY   = 160.4757

EPHEMERIS_TYPE = 0
CLASSIFICATION_TYPE = U
NORAD_CAT_ID   = 15483
ELEMENT_SET_NO = 999
REV_AT_EPOCH   = 14423
BSTAR          = .19568739E-3
MEAN_MOTION_DOT = .564E-5
MEAN_MOTION_DDOT = 0

CCSDS_OMM_VERS = 2.0
CREATION_DATE  = 
ORIGINATOR     = 

OBJECT_NAME    = SL-12 R/B(2)
OBJECT_ID      = 1985-042D
CENTER_NAME    = EARTH
REF_FRAME      = TEME
TIME_SYSTEM    = UTC
MEAN_ELEMENT_THEORY = SGP/SGP4

EPOCH          = 2025-12-31T21:13:45.443136
MEAN_MOTION    = 14.21957986
ECCENTRICITY   = .00370741
INCLINATION    = 71.1067
RA_OF_ASC_NODE = 230.9758
ARG_OF_PERICENTER = 233.3507
MEAN_ANOMALY   = 209.3530

EPHEMERIS_TYPE = 0
CLASSIFICATION_TYPE = U
NORAD_CAT_ID   = 15772
ELEMENT_SET_NO = 999
REV_AT_EPOCH   = 10475
BSTAR          = .10219053E-3
MEAN_MOTION_DOT = .179E-5
MEAN_MOTION_DDOT = 0

CCSDS_OMM_VERS = 2.0
CREATION_DATE  = 
ORIGINATOR     = 

OBJECT_NAME    = SL-14 R/B
OBJECT_ID      = 1985-069B
CENTER_NAME    = EARTH
REF_FRAME      = TEME
TIME_SYSTEM    = UTC
MEAN_ELEMENT_THEORY = SGP/SGP4

EPOCH          = 2025-12-31T16:27:55.947744
MEAN_MOTION    = 14.86349253
ECCENTRICITY   = .00200996
INCLINATION    = 82.5272
RA_OF_ASC_NODE = 88.8920
ARG_OF_PERICENTER = 60.1802
MEAN_ANOMALY   = 300.1409

EPHEMERIS_TYPE = 0
CLASSIFICATION_TYPE = U
NORAD_CAT_ID   = 15945
ELEMENT_SET_NO = 999
REV_AT_EPOCH   = 16273
BSTAR          = .10253695E-3
MEAN_MOTION_DOT = .931E-5
MEAN_MOTION_DDOT = 0

CCSDS_OMM_VERS = 2.0
CREATION_DATE  = 
ORIGINATOR     = 

OBJECT_NAME    = SL-16 R/B
OBJECT_ID      = 1985-097B
CENTER_NAME    = EARTH
REF_FRAME      = TEME
TIME_SYSTEM    = UTC
MEAN_ELEMENT_THEORY = SGP/SGP4

EPOCH          = 2025-12-31T22:00:22.275936
MEAN_MOTION    = 14.16586735
ECCENTRICITY   = .00078238
INCLINATION    = 71.0029
RA_OF_ASC_NODE = 283.2307
ARG_OF_PERICENTER = 342.1124
MEAN_ANOMALY   = 85.1666

EPHEMERIS_TYPE = 0
CLASSIFICATION_TYPE = U
NORAD_CAT_ID   = 16182
ELEMENT_SET_NO = 999
REV_AT_EPOCH   = 7763
BSTAR          = .32551869E-4
MEAN_MOTION_DOT = .17E-6
MEAN_MOTION_DDOT = 0

CCSDS_OMM_VERS = 2.0
CREATION_DATE  = 
ORIGINATOR     = 

OBJECT_NAME    = SL-14 R/B
OBJECT_ID      = 1986-006B
CENTER_NAME    = EARTH
REF_FRAME      = TEME
TIME_SYSTEM    = UTC
MEAN_ELEMENT_THEORY = SGP/SGP4

EPOCH          = 2025-12-31T21:10:18.981696
MEAN_MOTION    = 14.86699434
ECCENTRICITY   = .00777682
INCLINATION    = 82.5278
RA_OF_ASC_NODE = 323.5396
ARG_OF_PERICENTER = 136.5870
MEAN_ANOMALY   = 224.1508

EPHEMERIS_TYPE = 0
CLASSIFICATION_TYPE = U
NORAD_CAT_ID   = 16496
ELEMENT_SET_NO = 999
REV_AT_EPOCH   = 13913
BSTAR          = .10868263E-3
MEAN_MOTION_DOT = .1048E-4
MEAN_MOTION_DDOT = 0

CCSDS_OMM_VERS = 2.0
CREATION_DATE  = 
ORIGINATOR     = 

OBJECT_NAME    = COSMOS 1743
OBJECT_ID      = 1986-034A
CENTER_NAME    = EARTH
REF_FRAME      = TEME
TIME_SYSTEM    = UTC
MEAN_ELEMENT_THEORY = SGP/SGP4

EPOCH          = 2025-12-31T20:37:26.802336
MEAN_MOTION    = 15.53397849
ECCENTRICITY   = .00050366
INCLINATION    = 82.5349
RA_OF_ASC_NODE = 144.7159
ARG_OF_PERICENTER = 176.8546
MEAN_ANOMALY   = 183.2740

EPHEMERIS_TYPE = 0
CLASSIFICATION_TYPE = U
NORAD_CAT_ID   = 16719
ELEMENT_SET_NO = 999
REV_AT_EPOCH   = 16970
BSTAR          = .65401408E-3
MEAN_MOTION_DOT = .41555E-3
MEAN_MOTION_DDOT = 0

