SL-3 R/B                
1 13403U 82079B   25365.85655652  .00009155  00000+0  37492-3 0  9997
2 13403  81.1476 273.1245 0026463  37.6416 322.6662 15.23846553367366
SL-14 R/B               
1 13553U 82092B   25365.94259062  .00000838  00000+0  91482-4 0  9992
2 13553  82.5670 204.7523 0020738 162.0326 318.6710 14.86577009318869
SL-3 R/B                
1 13819U 83010B   25365.69920339  .00020895  00000+0  45446-3 0  9995
2 13819  81.1052  85.4676 0016307 283.2564  76.6860 15.44041406347448
SL-3 R/B                
1 14208U 83075B   25365.93614528  .00016535  00000+0  46046-3 0  9999
2 14208  97.6104   3.0701 0024426 110.1604 250.2270 15.36579504319743
COSMOS 1536             
1 14699U 84013A   25365.86453247  .00010852  00000+0  46166-3 0  9996
2 14699  82.5444 175.1942 0014969 157.0865 203.1042 15.22782456262293
SL-14 R/B               
1 14820U 84027B   25365.88260198  .00000880  00000+0  97975-4 0  9995
2 14820  82.5428 308.6049 0017489 193.2352 166.8408 14.85898334237569
SL-8 R/B                
1 15483U 85006B   25365.54910105  .00000564  00000+0  19569-3 0  9993
2 15483  74.0458  26.5272 0019470 315.1480 160.4757 14.37734979144236
SL-12 R/B(2)            
1 15772U 85042D   25365.88455374  .00000179  00000+0  10219-3 0  9998
2 15772  71.1067 230.9758 0037074 233.3507 209.3530 14.21957986104755
SL-14 R/B               
1 15945U 85069B   25365.68606421  .00000931  00000+0  10254-3 0  9993
2 15945  82.5272  88.8920 0020099  60.1802 300.1409 14.86349253162735
SL-16 R/B               
1 16182U 85097B   25365.91692449  .00000017  00000+0  32552-4 0  9990
2 16182  71.0029 283.2307 0007823 342.1124  85.1666 14.16586735 77632
SL-14 R/B               
1 16496U 86006B   25365.88216414  .00001048  00000+0  10868-3 0  9999
2 16496  82.5278 323.5396 0077768 136.5870 224.1508 14.86699434139139
COSMOS 1743             
1 16719U 86034A   25365.85933799  .00041555  00000+0  65401-3 0  9997
2 16719  82.5349 144.7159 0005036 176.8546 183.2740 15.53397849169701
